NORAD_CAT_ID,OBJECT_NAME,OBJECT_TYPE,EPOCH,MEAN_MOTION,ECCENTRICITY,INCLINATION,RA_OF_ASC_NODE,ARG_OF_PERICENTER,MEAN_ANOMALY,BSTAR,MEAN_MOTION_DOT,MEAN_MOTION_DDOT,TLE_LINE0,TLE_LINE1,TLE_LINE2,SEMIMAJOR_AXIS,PERIOD,APOGEE,PERIGEE,DECAYED
53530.0,STARLINK-4482,PAYLOAD,2024-06-23 11:22:55,15.08840087,0.000127,53.2182,356.5536,103.3462,256.7672,7.0288e-05,8.31e-06,0.0,0 STARLINK-4482,1 53530U 22101D   24175.47425905  .00000831  00000-0  70288-4 0  9998,2 53530  53.2182 356.5536 0001270 103.3462 256.7672 15.08840087101920,6917.88,95.438,540.624,538.867,0.0
53530.0,STARLINK-4482,PAYLOAD,2024-06-23 20:55:12,15.08864573,0.0002307,53.2186,354.7626,153.1855,206.9257,0.00021312,3.107e-05,0.0,0 STARLINK-4482,1 53530U 22101D   24175.87167319  .00003107  00000-0  21312-3 0  9996,2 53530  53.2186 354.7626 0002307 153.1855 206.9257 15.08864573101983,6917.805,95.436,541.266,538.074,0.0
53530.0,STARLINK-4482,PAYLOAD,2024-06-23 22:30:35,15.08864512,0.0002349,53.2187,354.4656,153.0994,207.0121,0.00021039,3.064e-05,0.0,0 STARLINK-4482,1 53530U 22101D   24175.93791253  .00003064  00000-0  21039-3 0  9991,2 53530  53.2187 354.4656 0002349 153.0994 207.0121 15.08864512101999,6917.805,95.436,541.295,538.045,0.0
53530.0,STARLINK-4482,PAYLOAD,2024-06-24 11:13:43,15.08837616,0.0002452,53.2161,352.0835,122.9264,237.1964,9.4899e-06,-1.37e-06,0.0,0 STARLINK-4482,1 53530U 22101D   24176.46786061 -.00000137  00000-0  94899-5 0  9996,2 53530  53.2161 352.0835 0002452 122.9264 237.1964 15.08837616102078,6917.888,95.438,541.449,538.056,0.0
53530.0,STARLINK-4482,PAYLOAD,2024-06-24 19:10:39,15.08831334,0.0001345,53.2187,350.6086,101.1636,258.9508,-3.4956e-05,-8.44e-06,0.0,0 STARLINK-4482,1 53530U 22101D   24176.79906759 -.00000844  00000-0 -34956-4 0  9993,2 53530  53.2187 350.6086 0001345 101.1636 258.9508 15.08831334102122,6917.907,95.438,540.702,538.841,0.0
53530.0,STARLINK-4482,PAYLOAD,2024-06-25 19:01:25,15.08847241,0.0001376,53.2191,346.148,85.9941,274.1208,4.5651e-05,4.39e-06,0.0,0 STARLINK-4482,1 53530U 22101D   24177.79265846  .00000439  00000-0  45651-4 0  9991,2 53530  53.2191 346.1480 0001376  85.9941 274.1208 15.08847241102274,6917.858,95.437,540.675,538.771,0.0
53530.0,STARLINK-4482,PAYLOAD,2024-06-27 04:24:31,15.08841484,0.0001507,53.2188,339.9021,75.8298,284.2861,0.00018031,2.583e-05,0.0,0 STARLINK-4482,1 53530U 22101D   24179.18369944  .00002583  00000-0  18031-3 0  9993,2 53530  53.2188 339.9021 0001507  75.8298 284.2861 15.08841484102483,6917.876,95.437,540.783,538.698,0.0
53530.0,STARLINK-4482,PAYLOAD,2024-06-27 17:07:36,15.08841327,0.0001696,53.2197,337.523,100.0383,260.0801,1.0483e-05,-1.21e-06,0.0,0 STARLINK-4482,1 53530U 22101D   24179.71362120 -.00000121  00000-0  10483-4 0  9992,2 53530  53.2197 337.5230 0001696 100.0383 260.0801 15.08841327102565,6917.876,95.437,540.915,538.568,0.0
53530.0,STARLINK-4482,PAYLOAD,2024-06-28 13:47:38,15.08927176,0.0002065,53.2184,333.6558,86.6691,273.4537,-0.00096755,-0.00015691,0.0,0 STARLINK-4482,1 53530U 22101D   24180.57475580 -.00015691  00000-0 -96755-3 0  9997,2 53530  53.2184 333.6558 0002065  86.6691 273.4537 15.08927176102698,6917.614,95.432,540.907,538.05,0.0
53530.0,STARLINK-4482,PAYLOAD,2024-06-28 16:58:22,15.08850126,0.0001662,53.2191,333.0622,108.5108,251.6065,0.00022398,3.279e-05,0.0,0 STARLINK-4482,1 53530U 22101D   24180.70720894  .00003279  00000-0  22398-3 0  9992,2 53530  53.2191 333.0622 0001662 108.5108 251.6065 15.08850126102718,6917.849,95.437,540.864,538.565,0.0
53530.0,STARLINK-4482,PAYLOAD,2024-06-29 10:27:39,15.08830172,0.0001645,53.219,329.7914,99.7081,260.4097,4.5848e-05,4.42e-06,0.0,0 STARLINK-4482,1 53530U 22101D   24181.43587032  .00000442  00000-0  45848-4 0  9993,2 53530  53.2190 329.7914 0001645  99.7081 260.4097 15.08830172102829,6917.91,95.438,540.913,538.637,0.0
53530.0,STARLINK-4482,PAYLOAD,2024-06-29 13:38:25,15.08827109,0.0001618,53.219,329.1961,100.29,259.8275,1.7215e-05,-1.4e-07,0.0,0 STARLINK-4482,1 53530U 22101D   24181.56835401 -.00000014  00000-0  17215-4 0  9996,2 53530  53.2190 329.1961 0001618 100.2900 259.8275 15.08827109102841,6917.92,95.438,540.904,538.665,0.0
53530.0,STARLINK-4482,PAYLOAD,2024-06-29 16:49:12,15.08824945,0.0001346,53.2174,328.6041,80.6856,279.4288,2.8897e-05,1.72e-06,0.0,0 STARLINK-4482,1 53530U 22101D   24181.70083708  .00000172  00000-0  28897-4 0  9999,2 53530  53.2174 328.6041 0001346  80.6856 279.4288 15.08824945102864,6917.926,95.439,540.723,538.86,0.0
53530.0,STARLINK-4482,PAYLOAD,2024-06-30 10:18:26,15.08843495,0.000143,53.2176,325.3291,54.9646,305.148,2.4904e-06,-2.48e-06,0.0,0 STARLINK-4482,1 53530U 22101D   24182.42947013 -.00000248  00000-0  24904-5 0  9998,2 53530  53.2176 325.3291 0001430  54.9646 305.1480 15.08843495102976,6917.87,95.437,540.724,538.745,0.0
53530.0,STARLINK-4482,PAYLOAD,2024-06-30 13:29:11,15.08852397,0.0001379,53.2188,324.7356,81.0576,279.0572,5.2462e-05,5.47e-06,0.0,0 STARLINK-4482,1 53530U 22101D   24182.56194271  .00000547  00000-0  52462-4 0  9993,2 53530  53.2188 324.7356 0001379  81.0576 279.0572 15.08852397102993,6917.842,95.437,540.661,538.754,0.0
53530.0,STARLINK-4482,PAYLOAD,2024-06-30 18:15:21,15.0885823,0.0001435,53.2178,323.8479,81.0493,279.0661,0.00045017,6.887e-05,0.0,0 STARLINK-4482,1 53530U 22101D   24182.76066230  .00006887  00000-0  45017-3 0  9998,2 53530  53.2178 323.8479 0001435  81.0493 279.0661 15.08858230103025,6917.825,95.436,540.682,538.697,0.0
53530.0,STARLINK-4482,PAYLOAD,2024-07-01 02:12:17,15.08841748,0.0001867,53.2159,322.3578,81.0504,279.0699,0.00019912,2.882e-05,0.0,0 STARLINK-4482,1 53530U 22101D   24183.09186934  .00002882  00000-0  19912-3 0  9995,2 53530  53.2159 322.3578 0001867  81.0504 279.0699 15.08841748103072,6917.875,95.437,541.032,538.448,0.0
53530.0,STARLINK-4482,PAYLOAD,2024-07-01 14:55:22,15.08843487,0.0001447,53.2175,319.9822,89.5585,270.5573,0.00018061,2.588e-05,0.0,0 STARLINK-4482,1 53530U 22101D   24183.62178781  .00002588  00000-0  18061-3 0  9992,2 53530  53.2175 319.9822 0001447  89.5585 270.5573 15.08843487103158,6917.87,95.437,540.736,538.734,0.0
53530.0,STARLINK-4482,PAYLOAD,2024-07-02 13:10:46,15.08836794,0.0001444,53.2177,315.815,82.8356,277.28,-5.1083e-05,-1.101e-05,0.0,0 STARLINK-4482,1 53530U 22101D   24184.54914910 -.00001101  00000-0 -51083-4 0  9990,2 53530  53.2177 315.8150 0001444  82.8356 277.2800 15.08836794103293,6917.89,95.438,540.754,538.756,0.0
53530.0,STARLINK-4482,PAYLOAD,2024-07-02 14:46:09,15.08836815,0.0001321,53.2165,315.5215,91.1162,268.9981,-0.00012509,-2.278e-05,0.0,0 STARLINK-4482,1 53530U 22101D   24184.61538849 -.00002278  00000-0 -12509-3 0  9996,2 53530  53.2165 315.5215 0001321  91.1162 268.9981 15.08836815103304,6917.89,95.438,540.669,538.841,0.0
53530.0,STARLINK-4482,PAYLOAD,2024-07-02 17:56:55,15.08844621,0.0001303,53.217,314.9244,89.0018,271.1123,-8.0273e-06,-4.16e-06,0.0,0 STARLINK-4482,1 53530U 22101D   24184.74786614 -.00000416  00000-0 -80273-5 0  9992,2 53530  53.2170 314.9244 0001303  89.0018 271.1123 15.08844621103321,6917.866,95.437,540.633,538.83,0.0
53530.0,STARLINK-4482,PAYLOAD,2024-07-03 01:53:51,15.08847759,0.000122,53.2172,313.4379,80.8748,279.2382,7.2361e-06,-1.73e-06,0.0,0 STARLINK-4482,1 53530U 22101D   24185.07906370 -.00000173  00000-0  72361-5 0  9990,2 53530  53.2172 313.4379 0001220  80.8748 279.2382 15.08847759103379,6917.857,95.437,540.566,538.878,0.0
53530.0,STARLINK-4482,PAYLOAD,2024-07-03 14:36:56,15.08846436,0.0001178,53.2162,311.0607,86.0021,274.1106,0.00021694,3.167e-05,0.0,0 STARLINK-4482,1 53530U 22101D   24185.60898474  .00003167  00000-0  21694-3 0  9990,2 53530  53.2162 311.0607 0001178  86.0021 274.1106 15.08846436103458,6917.861,95.437,540.541,538.911,0.0
53530.0,STARLINK-4482,PAYLOAD,2024-07-04 12:52:20,15.08835289,0.0001596,53.2146,306.8933,107.7303,252.3864,8.9505e-05,1.137e-05,0.0,0 STARLINK-4482,1 53530U 22101D   24186.53635063  .00001137  00000-0  89505-4 0  9997,2 53530  53.2146 306.8933 0001596 107.7303 252.3864 15.08835289103590,6917.895,95.438,540.864,538.656,0.0
53530.0,STARLINK-4482,PAYLOAD,2024-07-04 14:27:43,15.0883516,0.000125,53.2166,306.6006,95.3402,264.7733,-3.1963e-05,-7.96e-06,0.0,0 STARLINK-4482,1 53530U 22101D   24186.60259144 -.00000796  00000-0 -31963-4 0  9994,2 53530  53.2166 306.6006 0001250  95.3402 264.7733 15.08835160103602,6917.895,95.438,540.625,538.895,0.0
53530.0,STARLINK-4482,PAYLOAD,2024-07-05 14:18:30,15.08837407,7.29e-05,53.2155,302.1399,74.8619,285.2453,3.4526e-05,2.62e-06,0.0,0 STARLINK-4482,1 53530U 22101D   24187.59619117  .00000262  00000-0  34526-4 0  9997,2 53530  53.2155 302.1399 0000729  74.8619 285.2453 15.08837407103757,6917.888,95.438,540.258,539.249,0.0
53530.0,STARLINK-4482,PAYLOAD,2024-07-06 14:09:18,15.08835912,0.0001195,53.2171,297.6785,96.4715,263.6413,0.00018579,2.67e-05,0.0,0 STARLINK-4482,1 53530U 22101D   24188.58979577  .00002670  00000-0  18579-3 0  9990,2 53530  53.2171 297.6785 0001195  96.4715 263.6413 15.08835912103909,6917.893,95.438,540.585,538.931,0.0
53530.0,STARLINK-4482,PAYLOAD,2024-07-06 17:20:04,15.08837866,0.0001346,53.2172,297.0823,96.6329,263.4817,0.00010219,1.339e-05,0.0,0 STARLINK-4482,1 53530U 22101D   24188.72227471  .00001339  00000-0  10219-3 0  9999,2 53530  53.2172 297.0823 0001346  96.6329 263.4817 15.08837866103926,6917.887,95.438,540.683,538.821,0.0
53530.0,STARLINK-4482,PAYLOAD,2024-07-07 14:00:06,15.08823324,0.000112,53.2172,293.2174,107.2112,252.9002,0.00087492,0.00013657,0.0,0 STARLINK-4482,1 53530U 22101D   24189.58340349  .00013657  00000-0  87492-3 0  9997,2 53530  53.2172 293.2174 0001120 107.2112 252.9002 15.08823324104050,6917.931,95.439,540.571,539.022,0.0
53530.0,STARLINK-4482,PAYLOAD,2024-07-08 13:50:52,15.08842605,0.0001356,53.2174,288.7596,98.5681,261.5465,9.8164e-05,1.275e-05,0.0,0 STARLINK-4482,1 53530U 22101D   24190.57699423  .00001275  00000-0  98164-4 0  9990,2 53530  53.2174 288.7596 0001356  98.5681 261.5465 15.08842605104202,6917.872,95.437,540.675,538.799,0.0
